NORAD_CAT_ID,OBJECT_NAME,OBJECT_TYPE,EPOCH,MEAN_MOTION,ECCENTRICITY,INCLINATION,RA_OF_ASC_NODE,ARG_OF_PERICENTER,MEAN_ANOMALY,BSTAR,MEAN_MOTION_DOT,MEAN_MOTION_DDOT,TLE_LINE0,TLE_LINE1,TLE_LINE2,SEMIMAJOR_AXIS,PERIOD,APOGEE,PERIGEE,DECAYED
53545.0,STARLINK-4475,PAYLOAD,2024-01-01 12:09:33,15.08849603,0.0001757,53.2178,47.309,108.1719,251.9464,2.0463e-05,3.8e-07,0.0,0 STARLINK-4475,1 53545U 22101U   24001.50663804  .00000038  00000-0  20463-4 0  9997,2 53545  53.2178  47.3090 0001757 108.1719 251.9464 15.08849603 76491,6917.851,95.437,540.932,538.501,0.0
53545.0,STARLINK-4475,PAYLOAD,2024-01-02 02:28:02,15.08830932,0.0001688,53.2178,44.633,73.7833,286.3345,0.00024088,3.547e-05,0.0,0 STARLINK-4475,1 53545U 22101U   24002.10280839  .00003547  00000-0  24088-3 0  9991,2 53545  53.2178  44.6330 0001688  73.7833 286.3345 15.08830932 75893,6917.908,95.438,540.941,538.605,0.0
53545.0,STARLINK-4475,PAYLOAD,2024-01-02 08:49:35,15.0883834,0.0001758,53.2169,43.4434,72.5463,287.5721,0.00032345,4.863e-05,0.0,0 STARLINK-4475,1 53545U 22101U   24002.36776991  .00004863  00000-0  32345-3 0  9995,2 53545  53.2169  43.4434 0001758  72.5463 287.5721 15.08838340 76623,6917.885,95.438,540.967,538.534,0.0
53545.0,STARLINK-4475,PAYLOAD,2024-01-03 11:51:08,15.08846302,0.0001718,53.2176,38.3881,79.5764,280.5422,7.2886e-05,8.72e-06,0.0,0 STARLINK-4475,1 53545U 22101U   24003.49384652  .00000872  00000-0  72886-4 0  9990,2 53545  53.2176  38.3881 0001718  79.5764 280.5422 15.08846302 76108,6917.861,95.437,540.915,538.538,0.0
53545.0,STARLINK-4475,PAYLOAD,2024-01-04 08:31:09,15.08844113,0.0001881,53.2187,34.5222,96.1578,263.9628,7.4304e-05,8.95e-06,0.0,0 STARLINK-4475,1 53545U 22101U   24004.35496573  .00000895  00000-0  74304-4 0  9994,2 53545  53.2187  34.5222 0001881  96.1578 263.9628 15.08844113 76927,6917.868,95.437,541.034,538.432,0.0
53545.0,STARLINK-4475,PAYLOAD,2024-01-05 02:00:23,15.08835642,0.0001697,53.2171,31.2502,108.1102,252.0075,7.3165e-05,8.76e-06,0.0,0 STARLINK-4475,1 53545U 22101U   24005.08360927  .00000876  00000-0  73165-4 0  9991,2 53545  53.2171  31.2502 0001697 108.1102 252.0075 15.08835642 76345,6917.894,95.438,540.933,538.585,0.0
53545.0,STARLINK-4475,PAYLOAD,2024-01-05 08:21:56,15.08840277,0.000169,53.2178,30.0614,99.677,260.4413,2.7288e-05,1.46e-06,0.0,0 STARLINK-4475,1 53545U 22101U   24005.34856894  .00000146  00000-0  27288-4 0  9998,2 53545  53.2178  30.0614 0001690  99.6770 260.4413 15.08840277 77071,6917.88,95.438,540.914,538.575,0.0
53545.0,STARLINK-4475,PAYLOAD,2024-01-06 05:01:56,15.08841844,0.0001617,53.218,26.1971,100.9258,259.1916,6.3111e-05,7.17e-06,0.0,0 STARLINK-4475,1 53545U 22101U   24006.20968736  .00000717  00000-0  63111-4 0  9992,2 53545  53.2180  26.1971 0001617 100.9258 259.1916 15.08841844 76514,6917.875,95.437,540.858,538.621,0.0
53545.0,STARLINK-4475,PAYLOAD,2024-01-06 08:12:43,15.08849664,0.0001964,53.2179,25.6025,103.3052,256.8159,-1.1132e-05,-4.65e-06,0.0,0 STARLINK-4475,1 53545U 22101U   24006.34216444 -.00000465  00000-0 -11132-4 0  9997,2 53545  53.2179  25.6025 0001964 103.3052 256.8159 15.08849664 77220,6917.851,95.437,541.075,538.357,0.0
53545.0,STARLINK-4475,PAYLOAD,2024-01-07 00:06:35,15.0883505,0.0001653,53.2177,22.6279,104.3037,255.8139,4.9545e-05,5e-06,0.0,0 STARLINK-4475,1 53545U 22101U   24007.00457229  .00000500  00000-0  49545-4 0  9996,2 53545  53.2177  22.6279 0001653 104.3037 255.8139 15.08835050 76630,6917.896,95.438,540.904,538.617,0.0
53545.0,STARLINK-4475,PAYLOAD,2024-01-07 06:28:07,15.08833189,0.0001675,53.2175,21.4379,103.5456,256.5723,2.4171e-05,9.7e-07,0.0,0 STARLINK-4475,1 53545U 22101U   24007.26953544  .00000097  00000-0  24171-4 0  9994,2 53545  53.2175  21.4379 0001675 103.5456 256.5723 15.08833189 77365,6917.901,95.438,540.925,538.607,0.0
53545.0,STARLINK-4475,PAYLOAD,2024-01-08 09:29:42,15.08829429,0.0001592,53.2171,16.3821,94.1705,265.9469,-4.4207e-05,-9.91e-06,0.0,0 STARLINK-4475,1 53545U 22101U   24008.39562611 -.00000991  00000-0 -44207-4 0  9997,2 53545  53.2171  16.3821 0001592  94.1705 265.9469 15.08829429 76841,6917.913,95.438,540.879,538.676,0.0
53545.0,STARLINK-4475,PAYLOAD,2024-01-09 07:45:04,15.08844147,0.000184,53.2174,12.219,86.8824,273.2379,0.00015957,2.253e-05,0.0,0 STARLINK-4475,1 53545U 22101U   24009.32297348  .00002253  00000-0  15957-3 0  9993,2 53545  53.2174  12.2190 0001840  86.8824 273.2379 15.08844147 76985,6917.868,95.437,541.006,538.46,0.0
53545.0,STARLINK-4475,PAYLOAD,2024-01-09 23:38:58,15.08824357,0.0001666,53.2172,9.245,96.1175,264.0007,2.5177e-05,1.13e-06,0.0,0 STARLINK-4475,1 53545U 22101U   24009.98539449  .00000113  00000-0  25177-4 0  9995,2 53545  53.2172   9.2450 0001666  96.1175 264.0007 15.08824357 77086,6917.928,95.439,540.946,538.641,0.0
53545.0,STARLINK-4475,PAYLOAD,2024-01-10 09:11:17,15.08819262,0.0001687,53.2166,7.4599,94.2808,265.8377,-9.154e-06,-4.34e-06,0.0,0 STARLINK-4475,1 53545U 22101U   24010.38284313 -.00000434  00000-0 -91540-5 0  9994,2 53545  53.2166   7.4599 0001687  94.2808 265.8377 15.08819262 77839,6917.944,95.439,540.976,538.642,0.0
53545.0,STARLINK-4475,PAYLOAD,2024-01-11 09:02:01,15.08873042,0.0001811,53.2182,2.9998,97.5805,262.5393,0.00015876,2.242e-05,0.0,0 STARLINK-4475,1 53545U 22101U   24011.37640180  .00002242  00000-0  15876-3 0  9995,2 53545  53.2182   2.9998 0001811  97.5805 262.5393 15.08873042 77290,6917.779,95.435,540.897,538.392,0.0
53545.0,STARLINK-4475,PAYLOAD,2024-01-12 04:06:40,15.08841518,0.0001961,53.2182,359.4333,96.6136,263.508,0.00026234,3.89e-05,0.0,0 STARLINK-4475,1 53545U 22101U   24012.17129933  .00003890  00000-0  26234-3 0  9992,2 53545  53.2182 359.4333 0001961  96.6136 263.5080 15.08841518 77417,6917.876,95.437,541.097,538.384,0.0
53545.0,STARLINK-4475,PAYLOAD,2024-01-12 08:52:49,15.08856747,0.000199,53.2172,358.5401,92.7795,267.3425,0.00041742,6.364e-05,0.0,0 STARLINK-4475,1 53545U 22101U   24012.37001745  .00006364  00000-0  41742-3 0  9994,2 53545  53.2172 358.5401 0001990  92.7795 267.3425 15.08856747 78137,6917.829,95.436,541.071,538.318,0.0
53545.0,STARLINK-4475,PAYLOAD,2024-01-12 23:11:17,15.08847805,0.0002387,53.2175,355.8627,99.7723,260.3538,-0.00024905,-4.251e-05,0.0,0 STARLINK-4475,1 53545U 22101U   24012.96617886 -.00004251  00000-0 -24905-3 0  9995,2 53545  53.2175 355.8627 0002387  99.7723 260.3538 15.08847805 78222,6917.857,95.437,541.373,538.07,0.0
53545.0,STARLINK-4475,PAYLOAD,2024-01-13 03:57:27,15.08845988,0.0002106,53.2166,354.9708,93.3984,266.7249,-0.00023405,-4.012e-05,0.0,0 STARLINK-4475,1 53545U 22101U   24013.16489905 -.00004012  00000-0 -23405-3 0  9996,2 53545  53.2166 354.9708 0002106  93.3984 266.7249 15.08845988 77565,6917.862,95.437,541.184,538.27,0.0
53545.0,STARLINK-4475,PAYLOAD,2024-01-13 08:43:36,15.0884322,0.0002083,53.217,354.0771,97.8147,262.3081,-0.00011293,-2.085e-05,0.0,0 STARLINK-4475,1 53545U 22101U   24013.36361836 -.00002085  00000-0 -11293-3 0  9990,2 53545  53.2170 354.0771 0002083  97.8147 262.3081 15.08843220 78288,6917.871,95.437,541.177,538.295,0.0
53545.0,STARLINK-4475,PAYLOAD,2024-01-14 08:34:23,15.08847099,0.0002025,53.2168,349.6154,106.4409,253.6806,0.00027068,4.023e-05,0.0,0 STARLINK-4475,1 53545U 22101U   24014.35722002  .00004023  00000-0  27068-3 0  9995,2 53545  53.2168 349.6154 0002025 106.4409 253.6806 15.08847099 77740,6917.859,95.437,541.125,538.323,0.0
53545.0,STARLINK-4475,PAYLOAD,2024-01-15 03:39:01,15.08845792,0.0002144,53.2178,346.0458,102.2626,257.8606,0.00045822,7.013e-05,0.0,0 STARLINK-4475,1 53545U 22101U   24015.15210355  .00007013  00000-0  45822-3 0  9997,2 53545  53.2178 346.0458 0002144 102.2626 257.8606 15.08845792 77861,6917.863,95.437,541.211,538.244,0.0
53545.0,STARLINK-4475,PAYLOAD,2024-01-15 08:25:10,15.08861442,0.0002141,53.2176,345.1574,94.0481,266.0756,0.00060983,9.436e-05,0.0,0 STARLINK-4475,1 53545U 22101U   24015.35081843  .00009436  00000-0  60983-3 0  9993,2 53545  53.2176 345.1574 0002141  94.0481 266.0756 15.08861442 77893,6917.815,95.436,541.161,538.199,0.0
53545.0,STARLINK-4475,PAYLOAD,2024-01-16 06:40:35,15.08838656,0.0002256,53.2167,340.9914,106.7171,253.4069,3.8179e-05,3.19e-06,0.0,0 STARLINK-4475,1 53545U 22101U   24016.27818392  .00000319  00000-0  38179-4 0  9996,2 53545  53.2167 340.9914 0002256 106.7171 253.4069 15.08838656 78033,6917.884,95.438,541.31,538.189,0.0
53545.0,STARLINK-4475,PAYLOAD,2024-01-17 04:55:58,15.08855248,0.0001946,53.2181,336.8323,81.0579,279.0634,0.00091643,0.00014333,0.0,0 STARLINK-4475,1 53545U 22101U   24017.20554365  .00014333  00000-0  91643-3 0  9992,2 53545  53.2181 336.8323 0001946  81.0579 279.0634 15.08855248 78172,6917.834,95.437,541.045,538.353,0.0
53545.0,STARLINK-4475,PAYLOAD,2024-01-18 03:11:22,15.08845873,0.00023,53.2187,332.6604,76.6342,283.4907,0.00025152,3.718e-05,0.0,0 STARLINK-4475,1 53545U 22101U   24018.13290484  .00003718  00000-0  25152-3 0  9991,2 53545  53.2187 332.6604 0002300  76.6342 283.4907 15.08845873 78318,6917.862,95.437,541.319,538.136,0.0
53545.0,STARLINK-4475,PAYLOAD,2024-01-19 03:02:09,15.08847199,0.0001883,53.2156,328.2117,98.4272,261.6933,0.00020955,3.049e-05,0.0,0 STARLINK-4475,1 53545U 22101U   24019.12650459  .00003049  00000-0  20955-3 0  9996,2 53545  53.2156 328.2117 0001883  98.4272 261.6933 15.08847199 78469,6917.858,95.437,541.026,538.421,0.0
53545.0,STARLINK-4475,PAYLOAD,2024-01-19 06:12:56,15.08852977,0.0002101,53.217,327.6089,105.6148,254.5076,0.00028095,4.188e-05,0.0,0 STARLINK-4475,1 53545U 22101U   24019.25898310  .00004188  00000-0  28095-3 0  9998,2 53545  53.2170 327.6089 0002101 105.6148 254.5076 15.08852977 79171,6917.841,95.437,541.159,538.252,0.0
53545.0,STARLINK-4475,PAYLOAD,2024-01-20 06:03:42,15.08862012,0.0002008,53.2173,323.1475,111.5894,248.5312,0.00049052,7.532e-05,0.0,0 STARLINK-4475,1 53545U 22101U   24020.25257429  .00007532  00000-0  49052-3 0  9992,2 53545  53.2173 323.1475 0002008 111.5894 248.5312 15.08862012 78631,6917.813,95.436,541.067,538.289,0.0
